TIANMU-1 20             
1 58661U 23208B   26185.94981270  .00012830  00000+0  40399-3 0  9994
2 58661  97.4463 302.9984 0005664 255.2230 104.8385 15.33045664140142
TIANMU-1 21             
1 58662U 23208C   26185.91115795  .00014629  00000+0  42712-3 0  9992
2 58662  97.4523 305.7175 0005865 245.6798 114.3833 15.35408934140282
TIANMU-1 22             
1 58663U 23208D   26185.91366810  .00011522  00000+0  38331-3 0  9990
2 58663  97.4517 302.2291 0002184 274.4843  85.6149 15.31318325140043
TIANMU-1 15             
1 58700U 24004A   26185.98930653  .00008467  00000+0  32373-3 0  9990
2 58700  97.4672  12.1798 0005658 273.7334  86.3257 15.26836805138498
TIANMU-1 16             
1 58701U 24004B   26186.04499336  .00007860  00000+0  29985-3 0  9998
2 58701  97.4620  11.4576 0004383 294.7493  65.3290 15.26939729138506
TIANMU-1 17             
1 58702U 24004C   26186.03046236  .00007250  00000+0  27684-3 0  9992
2 58702  97.4646  11.9346 0003989 302.8633  57.2222 15.26937344138497
TIANMU-1 18             
1 58703U 24004D   26185.94045492  .00008267  00000+0  31606-3 0  9993
2 58703  97.4664  12.1062 0003355 276.3991  83.6865 15.26853916138482
INSAT-3DS               
1 58990U 24033A   26185.80880649 -.00000143  00000+0  00000+0 0  9995
2 58990   0.0762  96.1964 0001235  13.6104 186.2343  1.00273232 47243
METEOR-M2 4             
1 59051U 24039A   26185.97995653  .00000030  00000+0  33252-4 0  9994
2 59051  98.7019 145.0550 0008102 114.2131 245.9895 14.22431406121799
GOES 19                 
1 60133U 24119A   26185.84893336 -.00000235  00000+0  00000+0 0  9995
2 60133   0.0081 177.0624 0000570 357.0942 339.1148  1.00270089  7141
MTG-S1                  
1 64723U 25143A   26185.86375722  .00000005  00000+0  00000+0 0  9992
2 64723   0.5901 342.6521 0003099 262.4706 348.2447  1.00272407  3592
METOP-SGA1              
1 65159U 25172A   26185.40515773  .00000063  00000+0  50116-4 0  9992
2 65159  98.6635 244.7686 0007675   4.4509 355.6734 14.19817913 46231
FENGYUN 3H              
1 65815U 25219A   26185.58712798  .00000099  00000+0  66944-4 0  9993
2 65815  98.6770 126.0181 0001377  65.8289 294.3032 14.19923623 39857
