OBJECT_NAME,OBJECT_ID,EPOCH,MEAN_MOTION,ECCENTRICITY,INCLINATION,RA_OF_ASC_NODE,ARG_OF_PERICENTER,MEAN_ANOMALY,EPHEMERIS_TYPE,CLASSIFICATION_TYPE,NORAD_CAT_ID,ELEMENT_SET_NO,REV_AT_EPOCH,BSTAR,MEAN_MOTION_DOT,MEAN_MOTION_DDOT
TIANMU-1 20,2023-208B,2026-07-04T22:47:43.817280,15.33045664,.00056645,97.4463,302.9984,255.2230,104.8385,0,U,58661,999,14014,.40398924E-3,.1283E-3,0
TIANMU-1 21,2023-208C,2026-07-04T21:52:04.046880,15.35408934,.00058654,97.4523,305.7175,245.6798,114.3833,0,U,58662,999,14028,.42712028E-3,.14629E-3,0
TIANMU-1 22,2023-208D,2026-07-04T21:55:40.923840,15.31318325,.00021843,97.4517,302.2291,274.4843,85.6149,0,U,58663,999,14004,.38330759E-3,.11522E-3,0
TIANMU-1 15,2024-004A,2026-07-04T23:44:36.084192,15.26836805,.00056587,97.4672,12.1798,273.7334,86.3257,0,U,58700,999,13849,.32373229E-3,.8467E-4,0
TIANMU-1 16,2024-004B,2026-07-05T01:04:47.426304,15.26939729,.0004383,97.4620,11.4576,294.7493,65.3290,0,U,58701,999,13850,.29985E-3,.786E-4,0
TIANMU-1 17,2024-004C,2026-07-05T00:43:51.947904,15.26937344,.0003989,97.4646,11.9346,302.8633,57.2222,0,U,58702,999,13849,.27684E-3,.725E-4,0
TIANMU-1 18,2024-004D,2026-07-04T22:34:15.305088,15.26853916,.00033557,97.4664,12.1062,276.3991,83.6865,0,U,58703,999,13848,.31605767E-3,.8267E-4,0
INSAT-3DS,2024-033A,2026-07-04T19:24:40.880736,1.00273232,.0001235,0.0762,96.1964,13.6104,186.2343,0,U,58990,999,4724,0,-.143E-5,0
METEOR-M2 4,2024-039A,2026-07-04T23:31:08.244192,14.22431406,.00081021,98.7019,145.0550,114.2131,245.9895,0,U,59051,999,12179,.33252095E-4,.3E-6,0
GOES 19,2024-119A,2026-07-04T20:22:27.842304,1.00270089,.00005708,0.0081,177.0624,357.0942,339.1148,0,U,60133,999,714,0,-.235E-5,0
MTG-S1,2025-143A,2026-07-04T20:43:48.623808,1.00272407,.00030992,0.5901,342.6521,262.4706,348.2447,0,U,64723,999,359,0,.5E-7,0
METOP-SGA1,2025-172A,2026-07-04T09:43:25.627872,14.19817913,.00076753,98.6635,244.7686,4.4509,355.6734,0,U,65159,999,4623,.50116202E-4,.63E-6,0
FENGYUN 3H,2025-219A,2026-07-04T14:05:27.857472,14.19923623,.00013772,98.6770,126.0181,65.8289,294.3032,0,U,65815,999,3985,.66943895E-4,.99E-6,0
